#cP2010  5  7  0  0  0.00000000      96 U     WGS84 BRD NCKU
## 1582 432000.00000000   900.00000000 55323 0.0000000000000
+   34   G01G02G03G04G05G06G07G08G09G10G11G12G13G14G15G16G17
+        G18G19G20G21G22G23G24G25G26G27G28G29G30G31G32G59G75
+          0  0  0  0  0  0  0  0  0  0  0  0  0  0  0  0  0
+          0  0  0  0  0  0  0  0  0  0  0  0  0  0  0  0  0
+          0  0  0  0  0  0  0  0  0  0  0  0  0  0  0  0  0
++         0  0  0  0  0  0  0  0  0  0  0  0  0  0  0  0  0
++         0  0  0  0  0  0  0  0  0  0  0  0  0  0  0  0  0
++         0  0  0  0  0  0  0  0  0  0  0  0  0  0  0  0  0
++         0  0  0  0  0  0  0  0  0  0  0  0  0  0  0  0  0
++         0  0  0  0  0  0  0  0  0  0  0  0  0  0  0  0  0
%c G  cc GPS ccc cccc cccc cccc cccc ccccc ccccc ccccc ccccc
%c cc cc ccc ccc cccc cccc cccc cccc ccccc ccccc ccccc ccccc
%f  1.2500000  1.025000000  0.00000000000  0.000000000000000
%f  0.0000000  0.000000000  0.00000000000  0.000000000000000
%i    0    0    0    0      0      0      0      0         0
%i    0    0    0    0      0      0      0      0         0
/*                                                          
/*                                                          
/*                                                          
/*                                                          
*  2010  5  7 18  0  0.00000000
PG01   8096.255546 -22507.323175 -11529.514301   -116.915442
PG02  14302.178010  21343.054722  -7638.333403    253.526960
PG03      0.000000      0.000000      0.000000 999999.999999
PG04   4861.148273  25240.038943   5720.564663     76.788943
PG05  11224.515505  10376.651568 -21737.542355     -2.533197
PG06      0.000000      0.000000      0.000000 999999.999999
PG07  -9572.377790  14141.012613 -20310.516696     -0.245403
PG08  -1939.250737  22945.950411 -12763.102481      5.274545
PG09      0.000000      0.000000      0.000000 999999.999999
PG10   3217.952026  17619.183126 -19683.097062    -42.031985
PG11 -18579.688921   -283.222185  18824.300940    -61.111990
PG12  20064.513022  -6868.181761  15945.832457   -118.026976
PG13 -20295.235280   5988.731947 -16205.541776    304.678921
PG14    562.432698 -14876.645706  22140.027149     42.866915
PG15  25481.910981   6663.351307  -3880.744880   -276.389066
PG16  -5871.030477 -15053.937910 -20980.962328    -69.131609
PG17  -1450.587765  15265.102904  21796.363351    149.286818
PG18  17439.174490 -19746.113858   -347.376164     66.746026
PG19 -25373.529939  -8058.429906  -2349.487397    -33.277087
PG20 -20379.634378   9808.667932  13745.974895     56.509394
PG21   7599.300476 -17699.275388 -17683.841807    -58.552716
PG22   9419.108397 -22528.232837  10500.994882    172.646251
PG23 -25380.773460   1283.940338  -8287.233611    371.679198
PG24   2251.264780 -23277.240423 -12758.443285    285.331160
PG25      0.000000      0.000000      0.000000 999999.999999
PG26  25614.829551   1272.791513   7126.086853    -48.804097
PG27  17539.832792   9511.397864  18288.133329    149.871688
PG28 -11302.771281  22228.106141   9182.499941    -16.776379
PG29  20723.011160  -6621.429836 -15116.007985    118.204858
PG30  18979.201090 -17054.078068   6881.781623    240.514521
PG31  -6446.217028 -25378.119257   4050.283376    -37.908554
PG32 -18561.835483   -320.833562  19210.953348     34.645665
PG59  16560.954145   6923.006682  19053.521911      5.171634
PG75   7599.300476 -17699.275388 -17683.841807    -58.552716
*  2010  5  7 18 15  0.00000000
PG01   8979.536389 -23295.001142  -8996.508973   -116.919126
PG02  14338.233309  22101.491730  -4973.159728    253.530131
PG03      0.000000      0.000000      0.000000 999999.999999
PG04   4241.268202  24587.247450   8393.722059     76.796515
PG05   9698.035243  12316.470150 -21450.057040     -2.533811
PG06      0.000000      0.000000      0.000000 999999.999999
PG07 -10537.489339  11970.096249 -21222.940494     -0.245710
PG08  -2591.228043  21472.592128 -15057.653873      5.274750
PG09      0.000000      0.000000      0.000000 999999.999999
PG10   1750.679773  19199.477829 -18299.131303    -42.032701
PG11 -19672.868683  -2144.614357  17603.124339    -61.114037
PG12  18992.509820  -5262.957542  17783.338301   -118.023087
PG13 -21940.375578   5532.478642 -14066.202477    304.678614
PG14   3023.208140 -14425.358418  22228.703986     42.870906
PG15  24854.024017   6849.446999  -6630.472092   -276.384053
PG16  -4310.535314 -16820.998605 -19971.436400    -69.134986
PG17  -3888.551187  14866.561642  21754.449077    149.289069
PG18  17565.524684 -19344.380891  -3168.905494     66.748277
PG19 -24904.267804  -8200.489785  -5138.405022    -33.279440
PG20 -19564.524640   8277.500060  15772.878435     56.508883
PG21   8590.869563 -15732.893323 -19068.742970    -58.555069
PG22  10310.722281 -23146.376613   7967.686044    172.645534
PG23 -26127.105872    974.705818  -5582.688025    371.677970
PG24   2972.434914 -21846.514077 -14919.595496    285.334025
PG25      0.000000      0.000000      0.000000 999999.999999
PG26  26283.745321   1553.206808   4335.666340    -48.808497
PG27  18242.752635  11238.422211  16474.140499    149.874860
PG28 -12016.806479  22733.107458   6481.807769    -16.775561
PG29  22288.923870  -6155.775357 -12938.674511    118.207314
PG30  18622.491474 -16095.643682   9516.414418    240.517692
PG31  -6021.765301 -24900.619486   6857.759261    -37.906610
PG32 -17151.638655  -2028.061339  20430.786717     34.638094
PG59  17338.442243   8970.082215  17492.045161      5.173578
PG75   8590.869563 -15732.893323 -19068.742970    -58.555069
*  2010  5  7 18 30  0.00000000
PG01   9655.888330 -23882.935024  -6308.274988   -116.922809
PG02  14277.437336  22586.313698  -2224.753505    253.533303
PG03      0.000000      0.000000      0.000000 999999.999999
PG04   3463.162656  23696.964326  10918.503843     76.804086
PG05   8303.502263  14289.249166 -20793.807440     -2.534425
PG06      0.000000      0.000000      0.000000 999999.999999
PG07 -11652.695230   9780.861759 -21769.639133     -0.246017
PG08  -3414.785473  19809.849063 -17086.973716      5.274955
PG09      0.000000      0.000000      0.000000 999999.999999
PG10    464.232426  20713.316999 -16601.020062    -42.033417
PG11 -20742.373448  -3835.867999  16076.453107    -61.116083
PG12  17899.277675  -3447.227651  19314.321846   -118.019199
PG13 -23356.747504   5206.800348 -11687.038626    304.678307
PG14   5495.605633 -14114.926292  21939.643008     42.874896
PG15  23933.005282   7049.561831  -9266.835423   -276.379039
PG16  -2924.039048 -18561.163829 -18614.542724    -69.138362
PG17  -6320.631590  14598.071836  21341.328328    149.291320
PG18  17525.891904 -18689.071446  -5934.373051     66.750528
PG19 -24137.756899  -8320.219048  -7840.433093    -33.281794
PG20 -18708.234505   6527.834824  17525.218469     56.508371
PG21   9728.179449 -13690.801101 -20110.730412    -58.557423
PG22  11000.622603 -23569.267957   5297.290498    172.644818
PG23 -26580.616173    732.048684  -2783.917600    371.676742
PG24   3855.042721 -20241.351335 -16825.741381    285.336890
PG25      0.000000      0.000000      0.000000 999999.999999
PG26  26650.168196   1745.904400   1471.595283    -48.812896
PG27  18937.902363  12738.091936  14391.090808    149.878032
PG28 -12522.229812  23022.450582   3669.073395    -16.774742
PG29  23617.913680  -5800.033983 -10537.072943    118.209769
PG30  18162.295484 -14870.041663  11984.049914    240.520864
PG31  -5439.262193 -24165.396168   9546.696067    -37.904666
PG32 -15760.877597  -3893.944131  21306.588038     34.630522
PG59  18134.009746  10791.621483  15617.407815      5.175522
PG75   9728.179449 -13690.801101 -20110.730412    -58.557423
*  2010  5  7 18 45  0.00000000
PG01  10144.756130 -24236.860608  -3511.011373   -116.926492
PG02  14085.247769  22806.589657    560.874876    253.536475
PG03      0.000000      0.000000      0.000000 999999.999999
PG04   2508.225636  22602.948696  13250.198790     76.811658
PG05   7060.239013  16250.723265 -19779.813166     -2.535039
PG06      0.000000      0.000000      0.000000 999999.999999
PG07 -12903.121678   7620.643897 -21941.698817     -0.246324
PG08  -4420.975245  18004.338698 -18816.319166      5.275159
PG09      0.000000      0.000000      0.000000 999999.999999
PG10   -636.526951  22115.811001 -14616.885030    -42.034133
PG11 -21752.240655  -5340.618515  14271.906051    -61.118129
PG12  16825.543116  -1444.486411  20512.863017   -118.015311
PG13 -24510.429259   4983.437697  -9108.352620    304.678000
PG14   7929.443760 -13947.237428  21277.311145     42.878887
PG15  22734.596142   7298.569071 -11744.684434   -276.374025
PG16  -1723.004157 -20227.415469 -16933.306465    -69.141739
PG17  -8698.507734  14458.647087  20563.367583    149.293571
PG18  17354.146200 -17768.565863  -8594.622010     66.752779
PG19 -23082.705758  -8454.446827 -10409.734396    -33.284147
PG20 -17849.194828   4579.674964  18972.292213     56.507859
PG21  11003.087810 -11620.449649 -20792.312490    -58.559776
PG22  11507.242718 -23765.297032   2535.570397    172.644102
PG23 -26729.282704    519.748409     61.831794    371.675515
PG24   4907.835095 -18503.376900 -18443.694629    285.339755
PG25      0.000000      0.000000      0.000000 999999.999999
PG26  26703.635184   1889.095226  -1417.333067    -48.817296
PG27  19584.406568  13994.962312  12071.802678    149.881204
PG28 -12841.577722  23063.945261    792.543149    -16.773924
PG29  24680.365752  -5525.836163  -7952.968206    118.212225
PG30  17638.316023 -13381.517954  14240.578697    240.524036
PG31  -4674.857945 -23205.573111  12071.085585    -37.902722
PG32 -14427.039303  -5890.281109  21824.980767     34.622951
PG59  18907.120416  12363.995533  13464.452164      5.177466
PG75  11003.087810 -11620.449649 -20792.312490    -58.559776
EOF
